[{"OBJECT_NAME":"GEISAT PRECURSOR","OBJECT_ID":"2023-084C","EPOCH":"2026-03-09T22:20:25.833120","MEAN_MOTION":15.33054389,"ECCENTRICITY":0.00051675,"INCLINATION":97.6055,"RA_OF_ASC_NODE":206.8263,"ARG_OF_PERICENTER":345.1842,"MEAN_ANOMALY":14.9247,"EPHEMERIS_TYPE":0,"CLASSIFICATION_TYPE":"U","NORAD_CAT_ID":56934,"ELEMENT_SET_NO":999,"REV_AT_EPOCH":15231,"BSTAR":0.00033857167,"MEAN_MOTION_DOT":0.00010736,"MEAN_MOTION_DDOT":0},{"OBJECT_NAME":"STARLINK-30972","OBJECT_ID":"2024-002S","EPOCH":"2026-03-09T17:38:59.506944","MEAN_MOTION":15.30196348,"ECCENTRICITY":0.00018792,"INCLINATION":53.1593,"RA_OF_ASC_NODE":229.6261,"ARG_OF_PERICENTER":93.8971,"MEAN_ANOMALY":266.2245,"EPHEMERIS_TYPE":0,"CLASSIFICATION_TYPE":"U","NORAD_CAT_ID":58721,"ELEMENT_SET_NO":999,"REV_AT_EPOCH":12202,"BSTAR":1.1308459e-5,"MEAN_MOTION_DOT":-2.5e-7,"MEAN_MOTION_DDOT":0}]
